id,year,month,day,dep_time,sched_dep_time,dep_delay,sched_arr_time,carrier,flight,tailnum,origin,dest,distance,hour,minute,time_hour,arr_status,temp,dewp,humid,wind_dir,wind_speed,wind_gust,precip,pressure,visib
F1,2013,12,1,453,500,-7,651,US,1895,N197UW,EWR,CLT,529,5,0,2013-12-01 05:00:00,NA,35.06,28.04,75.31,10,4.60312,NA,0,1024.5,10
F2,2013,12,1,554,601,-7,811,EV,4714,N14904,EWR,CLT,529,6,1,2013-12-01 06:00:00,NA,33.8,26.6,78.45,40,5.7539,NA,0,NA,10
F3,2013,12,1,621,615,6,817,US,1989,N245AY,EWR,CLT,529,6,15,2013-12-01 06:00:00,NA,33.8,26.6,78.45,40,5.7539,NA,0,NA,10
F4,2013,12,1,626,630,-4,835,US,1946,N169UW,EWR,CLT,529,6,30,2013-12-01 06:00:00,NA,33.8,26.6,78.45,40,5.7539,NA,0,NA,10
F5,2013,12,1,817,820,-3,1021,US,409,N669AW,EWR,CLT,529,8,20,2013-12-01 08:00:00,NA,39.02,30.92,72.46,30,3.4523399999999995,NA,0,1023.7,10
F6,2013,12,1,1016,1023,-7,1218,US,1745,N161UW,EWR,CLT,529,10,23,2013-12-01 10:00:00,NA,44.96,32,60.2,0,0,NA,0,1022.2,10
F7,2013,12,1,1307,1315,-8,1506,US,802,N537UW,EWR,CLT,529,13,15,2013-12-01 13:00:00,NA,48.02,28.94,47.36,210,3.4523399999999995,NA,0,1018.7,10
F8,2013,12,1,1318,1229,49,1430,EV,5796,N13997,EWR,CLT,529,12,29,2013-12-01 12:00:00,NA,48.02,30.02,49.5,NA,4.60312,NA,0,1019.8,10
F9,2013,12,1,1454,1500,-6,1656,US,721,N156UW,EWR,CLT,529,15,0,2013-12-01 15:00:00,NA,48.02,30.92,51.34,210,5.7539,NA,0,1018.4,10
F10,2013,12,1,1513,1520,-7,1721,EV,4326,N16999,EWR,CLT,529,15,20,2013-12-01 15:00:00,NA,48.02,30.92,51.34,210,5.7539,NA,0,1018.4,10
F11,2013,12,1,1722,1730,-8,1928,US,687,N662AW,EWR,CLT,529,17,30,2013-12-01 17:00:00,NA,46.94,30.02,51.55,230,5.7539,NA,0,1017.9,10
F12,2013,12,1,1824,1829,-5,2033,US,1751,N193UW,EWR,CLT,529,18,29,2013-12-01 18:00:00,NA,48.02,28.94,47.36,250,6.904679999999999,NA,0,1017.9,10
F13,2013,12,1,1948,1915,33,2115,EV,4635,N12540,EWR,CLT,529,19,15,2013-12-01 19:00:00,NA,46.94,30.02,51.55,250,4.60312,NA,0,1017.9,10
F14,2013,12,1,2108,2120,-12,2320,US,726,N188US,EWR,CLT,529,21,20,2013-12-01 21:00:00,NA,44.06,28.94,55.02,260,5.7539,NA,0,1017.2,10
F15,2013,12,1,2213,2121,52,2313,EV,4700,N14568,EWR,CLT,529,21,21,2013-12-01 21:00:00,NA,44.06,28.94,55.02,260,5.7539,NA,0,1017.2,10
F16,2013,12,2,452,500,-8,651,US,1895,N554UW,EWR,CLT,529,5,0,2013-12-02 05:00:00,NA,39.92,28.94,64.54,0,0,NA,0,1015,10
F17,2013,12,2,609,615,-6,818,US,1989,N198UW,EWR,CLT,529,6,15,2013-12-02 06:00:00,NA,42.08,28.94,59.36,0,0,NA,0,1014.9,10
F18,2013,12,2,623,630,-7,835,US,2052,N561UW,EWR,CLT,529,6,30,2013-12-02 06:00:00,NA,42.08,28.94,59.36,0,0,NA,0,1014.9,10
F19,2013,12,2,815,820,-5,1021,US,409,N673AW,EWR,CLT,529,8,20,2013-12-02 08:00:00,NA,42.98,30.02,59.93,60,4.60312,NA,0,1015.2,8
F20,2013,12,2,841,601,160,811,EV,4471,N14905,EWR,CLT,529,6,1,2013-12-02 06:00:00,NA,42.08,28.94,59.36,0,0,NA,0,1014.9,10
F21,2013,12,2,1017,1023,-6,1218,US,1745,N185UW,EWR,CLT,529,10,23,2013-12-02 10:00:00,NA,46.04,33.98,62.56,0,0,NA,0,1014.9,8
F22,2013,12,2,1227,1224,3,1425,EV,3848,N17984,EWR,CLT,529,12,24,2013-12-02 12:00:00,NA,48.92,33.98,56.14,0,0,NA,0,1013.4,8
F23,2013,12,2,1309,1315,-6,1506,US,802,N560UW,EWR,CLT,529,13,15,2013-12-02 13:00:00,NA,51.08,33.08,49.97,0,0,NA,0,1012.1,8
F24,2013,12,2,1643,1459,104,1654,US,721,N173US,EWR,CLT,529,14,59,2013-12-02 14:00:00,NA,50,33.98,53.92,0,0,NA,0,1012.6,6
F25,2013,12,2,1651,1520,91,1721,EV,4326,N13988,EWR,CLT,529,15,20,2013-12-02 15:00:00,NA,50,32,49.81,0,0,NA,0,1013.2,6
F26,2013,12,2,1727,1730,-3,1928,US,687,N668AW,EWR,CLT,529,17,30,2013-12-02 17:00:00,NA,42.98,33.98,70.3,40,5.7539,NA,0,1012.7,7
F27,2013,12,2,1820,1829,-9,2033,US,1751,N558UW,EWR,CLT,529,18,29,2013-12-02 18:00:00,NA,44.06,37.04,76.16,20,6.904679999999999,NA,0,1012.7,7
F28,2013,12,2,1912,1915,-3,2115,EV,4444,N13975,EWR,CLT,529,19,15,2013-12-02 19:00:00,NA,44.06,35.96,72.98,50,4.60312,NA,0,1012.9,7
F29,2013,12,2,2109,2111,-2,2303,EV,4700,N11536,EWR,CLT,529,21,11,2013-12-02 21:00:00,NA,42.08,37.04,82.17,50,3.4523399999999995,NA,0,1012.9,7
F30,2013,12,3,457,500,-3,651,US,1895,N174US,EWR,CLT,529,5,0,2013-12-03 05:00:00,NA,35.96,33.98,92.43,20,4.60312,NA,0,1012.5,7
F31,2013,12,3,601,601,0,811,EV,4471,N12563,EWR,CLT,529,6,1,2013-12-03 06:00:00,NA,37.94,35.06,89.25,350,6.904679999999999,NA,0,1013,7
F32,2013,12,3,612,615,-3,818,US,1989,N559UW,EWR,CLT,529,6,15,2013-12-03 06:00:00,NA,37.94,35.06,89.25,350,6.904679999999999,NA,0,1013,7
F33,2013,12,3,623,630,-7,835,US,2052,N151UW,EWR,CLT,529,6,30,2013-12-03 06:00:00,NA,37.94,35.06,89.25,350,6.904679999999999,NA,0,1013,7
F34,2013,12,3,821,820,1,1021,US,409,N642AW,EWR,CLT,529,8,20,2013-12-03 08:00:00,NA,42.98,35.96,76.06,10,3.4523399999999995,NA,0,1013.6,8
F35,2013,12,3,1022,1025,-3,1222,US,2083,N539UW,EWR,CLT,529,10,25,2013-12-03 10:00:00,NA,48.92,35.96,60.74,0,0,NA,0,1013.7,8
F36,2013,12,3,1215,1224,-9,1425,EV,3848,N14573,EWR,CLT,529,12,24,2013-12-03 12:00:00,NA,53.96,33.98,46.6,260,5.7539,NA,0,1012.2,9
F37,2013,12,3,1308,1315,-7,1506,US,802,N568UW,EWR,CLT,529,13,15,2013-12-03 13:00:00,NA,53.96,33.98,46.6,250,5.7539,NA,0,1011.8,9
F38,2013,12,3,1457,1459,-2,1654,US,721,N179UW,EWR,CLT,529,14,59,2013-12-03 14:00:00,NA,53.96,33.98,46.6,260,5.7539,NA,0,1011.9,9
F39,2013,12,3,1523,1520,3,1721,EV,4326,N14543,EWR,CLT,529,15,20,2013-12-03 15:00:00,NA,53.96,33.98,46.6,240,6.904679999999999,NA,0,1012.7,9
F40,2013,12,3,1728,1725,3,1923,US,632,N661AW,EWR,CLT,529,17,25,2013-12-03 17:00:00,NA,51.08,32,47.85,270,5.7539,NA,0,1013.9,9
F41,2013,12,3,1909,1915,-6,2115,EV,4444,N14952,EWR,CLT,529,19,15,2013-12-03 19:00:00,NA,48.02,32,53.63,0,0,NA,0,1014.7,8
F42,2013,12,4,457,500,-3,651,US,1895,N197UW,EWR,CLT,529,5,0,2013-12-04 05:00:00,NA,39.02,33.98,81.95,30,4.60312,NA,0,1018.8,6
F43,2013,12,4,609,610,-1,820,EV,4199,N14916,EWR,CLT,529,6,10,2013-12-04 06:00:00,NA,37.04,33.08,85.43,20,6.904679999999999,NA,0,1019.3,7
F44,2013,12,4,627,630,-3,835,US,2052,N559UW,EWR,CLT,529,6,30,2013-12-04 06:00:00,NA,37.04,33.08,85.43,20,6.904679999999999,NA,0,1019.3,7
F45,2013,12,4,631,615,16,818,US,1989,N163US,EWR,CLT,529,6,15,2013-12-04 06:00:00,NA,37.04,33.08,85.43,20,6.904679999999999,NA,0,1019.3,7
F46,2013,12,4,815,820,-5,1021,US,409,N668AW,EWR,CLT,529,8,20,2013-12-04 08:00:00,NA,41,35.96,82.09,20,4.60312,NA,0,1018.7,5
F47,2013,12,4,932,937,-5,1149,EV,5796,N16963,EWR,CLT,529,9,37,2013-12-04 09:00:00,NA,46.04,35.96,67.69,0,0,NA,0,1019.8,6
F48,2013,12,4,1035,1025,10,1222,US,2083,N183UW,EWR,CLT,529,10,25,2013-12-04 10:00:00,NA,48.92,37.04,63.39,0,0,NA,0,1020,6
F49,2013,12,4,1316,1315,1,1506,US,802,N162UW,EWR,CLT,529,13,15,2013-12-04 13:00:00,NA,50,39.92,68.15,70,4.60312,NA,0,1018.3,4
F50,2013,12,4,1455,1459,-4,1654,US,721,N562UW,EWR,CLT,529,14,59,2013-12-04 14:00:00,NA,50,41,71.07,150,4.60312,NA,0,1018.7,5
F51,2013,12,4,1503,1457,6,1658,EV,4113,N14153,EWR,CLT,529,14,57,2013-12-04 14:00:00,NA,50,41,71.07,150,4.60312,NA,0,1018.7,5
F52,2013,12,4,1724,1730,-6,1928,US,687,N662AW,EWR,CLT,529,17,30,2013-12-04 17:00:00,NA,50,42.08,74.1,0,0,NA,0,1019.9,7
F53,2013,12,4,1848,1829,19,2033,US,1751,N163US,EWR,CLT,529,18,29,2013-12-04 18:00:00,NA,50,42.08,74.1,120,3.4523399999999995,NA,0,1020.5,9
F54,2013,12,4,2027,1905,82,2106,EV,4511,N16963,EWR,CLT,529,19,5,2013-12-04 19:00:00,NA,50,42.98,76.71,0,0,NA,0,1020.4,9
F55,2013,12,4,2229,2111,78,2303,EV,4700,N16961,EWR,CLT,529,21,11,2013-12-04 21:00:00,NA,50,44.06,79.94,60,3.4523399999999995,NA,0,1020.1,7
F56,2013,12,5,457,500,-3,651,US,1895,N563UW,EWR,CLT,529,5,0,2013-12-05 05:00:00,NA,48.2,48.02,100,330,4.60312,NA,0.01,NA,1.5
F57,2013,12,5,603,610,-7,820,EV,4714,N13989,EWR,CLT,529,6,10,2013-12-05 06:00:00,NA,48.92,48.02,96.69,0,0,NA,0,1018.7,1.5
F58,2013,12,5,608,615,-7,818,US,1989,N192UW,EWR,CLT,529,6,15,2013-12-05 06:00:00,NA,48.92,48.02,96.69,0,0,NA,0,1018.7,1.5
F59,2013,12,5,625,630,-5,835,US,2052,N559UW,EWR,CLT,529,6,30,2013-12-05 06:00:00,NA,48.92,48.02,96.69,0,0,NA,0,1018.7,1.5
F60,2013,12,5,820,820,0,1021,US,409,N669AW,EWR,CLT,529,8,20,2013-12-05 08:00:00,NA,50,50,100,60,3.4523399999999995,NA,0,NA,0.25
F61,2013,12,5,1329,1315,14,1506,US,802,N150UW,EWR,CLT,529,13,15,2013-12-05 13:00:00,NA,57.92,53.6,87.74,0,0,NA,0,NA,6
F62,2013,12,5,1335,1025,190,1222,US,2083,N556UW,EWR,CLT,529,10,25,2013-12-05 10:00:00,NA,53.6,51.98,100,0,0,NA,0,NA,0.5
F63,2013,12,5,1509,1459,10,1700,EV,4396,N16987,EWR,CLT,529,14,59,2013-12-05 14:00:00,NA,57.92,53.06,83.82,0,0,NA,0,1015.4,5
F64,2013,12,5,1627,942,405,1154,EV,5796,N15555,EWR,CLT,529,9,42,2013-12-05 09:00:00,NA,51.8,51.8,100,30,3.4523399999999995,NA,0,NA,0.25
F65,2013,12,5,1911,1730,101,1928,US,687,N676AW,EWR,CLT,529,17,30,2013-12-05 17:00:00,NA,59,55.04,86.69,250,8.05546,NA,0,1016.1,6
F66,2013,12,5,2005,1829,96,2033,US,1751,N192UW,EWR,CLT,529,18,29,2013-12-05 18:00:00,NA,57.92,55.04,90.11,0,0,NA,0,1015.7,6
F67,2013,12,5,2301,2111,110,2303,EV,4700,N13908,EWR,CLT,529,21,11,2013-12-05 21:00:00,NA,57.2,55.4,100,150,5.7539,NA,0,NA,1.5
F68,2013,12,6,456,500,-4,651,US,1895,N155UW,EWR,CLT,529,5,0,2013-12-06 05:00:00,NA,62.06,60.98,96.25,220,8.05546,NA,0,1011.9,2.5
F69,2013,12,6,607,615,-8,818,US,1989,N197UW,EWR,CLT,529,6,15,2013-12-06 06:00:00,NA,53.6,51.8,100,330,18.41248,NA,0.03,NA,9
F70,2013,12,6,615,610,5,820,EV,4714,N12157,EWR,CLT,529,6,10,2013-12-06 06:00:00,NA,53.6,51.8,100,330,18.41248,NA,0.03,NA,9
F71,2013,12,6,622,630,-8,835,US,2052,N567UW,EWR,CLT,529,6,30,2013-12-06 06:00:00,NA,53.6,51.8,100,330,18.41248,NA,0.03,NA,9
F72,2013,12,6,817,820,-3,1021,US,409,N660AW,EWR,CLT,529,8,20,2013-12-06 08:00:00,NA,50,46.04,86.19,330,12.658579999999999,NA,0.02,1015.9,6
F73,2013,12,6,941,942,-1,1154,EV,5796,N15555,EWR,CLT,529,9,42,2013-12-06 09:00:00,NA,50,46.4,87.37,350,14.960139999999999,NA,0.02,NA,10
F74,2013,12,6,1024,1025,-1,1222,US,2083,N174US,EWR,CLT,529,10,25,2013-12-06 10:00:00,NA,48.2,44.6,87.28,350,16.11092,NA,0.05,NA,9
F75,2013,12,6,1311,1315,-4,1506,US,802,N189UW,EWR,CLT,529,13,15,2013-12-06 13:00:00,NA,44.96,42.8,93.35,360,12.658579999999999,NA,0,NA,10
F76,2013,12,6,1451,1459,-8,1654,US,721,N562UW,EWR,CLT,529,14,59,2013-12-06 14:00:00,NA,44.96,39.92,82.38,350,11.5078,NA,0.02,1016.7,10
F77,2013,12,6,1514,1459,15,1700,EV,4396,N24128,EWR,CLT,529,14,59,2013-12-06 14:00:00,NA,44.96,39.92,82.38,350,11.5078,NA,0.02,1016.7,10
F78,2013,12,6,1725,1730,-5,1928,US,687,N675AW,EWR,CLT,529,17,30,2013-12-06 17:00:00,NA,42.98,39.02,85.79,350,12.658579999999999,NA,0.02,1018.2,6
F79,2013,12,6,1823,1829,-6,2033,US,1751,N197UW,EWR,CLT,529,18,29,2013-12-06 18:00:00,NA,42.98,39.2,86.99,350,11.5078,NA,0.02,NA,7
F80,2013,12,6,2132,1905,147,2106,EV,4397,N27200,EWR,CLT,529,19,5,2013-12-06 19:00:00,NA,42.8,39.2,93.24,350,10.357019999999999,NA,0.22,NA,4
F81,2013,12,7,607,615,-8,818,US,883,N157UW,EWR,CLT,529,6,15,2013-12-07 06:00:00,NA,37.4,32,81.8,350,9.20624,NA,0,NA,10
F82,2013,12,7,622,630,-8,835,US,1951,N194UW,EWR,CLT,529,6,30,2013-12-07 06:00:00,NA,37.4,32,81.8,350,9.20624,NA,0,NA,10
F83,2013,12,7,814,820,-6,1021,US,409,N660AW,EWR,CLT,529,8,20,2013-12-07 08:00:00,NA,37.94,30.92,75.58,310,9.20624,NA,0,1025.9,10
F84,2013,12,7,927,937,-10,1149,EV,4714,N48901,EWR,CLT,529,9,37,2013-12-07 09:00:00,NA,39.02,28.94,66.85,340,14.960139999999999,24.166379999999997,0,1026.6,10
F85,2013,12,7,1026,1025,1,1222,US,1842,N198UW,EWR,CLT,529,10,25,2013-12-07 10:00:00,NA,42.08,30.02,62.04,320,13.809359999999998,NA,0,1026.6,10
F86,2013,12,7,1220,1224,-4,1425,EV,3848,N12900,EWR,CLT,529,12,24,2013-12-07 12:00:00,NA,41,24.08,50.63,330,17.261699999999998,NA,0,1026.8,10
F87,2013,12,7,1308,1315,-7,1506,US,802,N748UW,EWR,CLT,529,13,15,2013-12-07 13:00:00,NA,41,24.08,50.63,330,14.960139999999999,NA,0,1026.7,10
F88,2013,12,7,1501,1459,2,1654,US,1837,N536UW,EWR,CLT,529,14,59,2013-12-07 14:00:00,NA,41,21.02,44.51,330,16.11092,NA,0,1027.1,10
F89,2013,12,7,1549,1540,9,1741,EV,4146,N14923,EWR,CLT,529,15,40,2013-12-07 15:00:00,NA,39.02,21.02,48.07,300,11.5078,18.41248,0,1027.8,10
F90,2013,12,7,1700,1700,0,1856,US,632,N661AW,EWR,CLT,529,17,0,2013-12-07 17:00:00,NA,35.96,21.02,54.21,290,10.357019999999999,NA,0,1029.6,10
F91,2013,12,7,1822,1829,-7,2033,US,1873,N460UW,EWR,CLT,529,18,29,2013-12-07 18:00:00,NA,35.96,21.02,54.21,290,8.05546,18.41248,0,1030.4,10
F92,2013,12,7,2055,2059,-4,2251,EV,4700,N14993,EWR,CLT,529,20,59,2013-12-07 20:00:00,NA,33.98,17.96,51.47,300,9.20624,NA,0,1032.3,10
F93,2013,12,8,16,2111,185,2303,EV,4700,N14179,EWR,CLT,529,21,11,2013-12-08 21:00:00,NA,30.2,28.4,92.92,20,8.05546,NA,0,NA,2.5
F94,2013,12,8,610,615,-5,818,US,1989,N180US,EWR,CLT,529,6,15,2013-12-08 06:00:00,NA,28.04,15.08,57.79,10,9.20624,NA,0,1035.2,10
F95,2013,12,8,629,630,-1,835,US,1925,N199UW,EWR,CLT,529,6,30,2013-12-08 06:00:00,NA,28.04,15.08,57.79,10,9.20624,NA,0,1035.2,10
F96,2013,12,8,816,820,-4,1021,US,409,N657AW,EWR,CLT,529,8,20,2013-12-08 08:00:00,NA,30.02,15.08,53.29,20,6.904679999999999,NA,0,1036.3,10
F97,2013,12,8,936,937,-1,1149,EV,4714,N36915,EWR,CLT,529,9,37,2013-12-08 09:00:00,NA,30.92,15.98,53.44,10,6.904679999999999,NA,0,1035.8,10
F98,2013,12,8,1018,1025,-7,1222,US,2083,N153UW,EWR,CLT,529,10,25,2013-12-08 10:00:00,NA,32,17.06,53.6,20,10.357019999999999,NA,0,1035.5,10
F99,2013,12,8,1210,1210,0,1411,EV,5796,N29917,EWR,CLT,529,12,10,2013-12-08 12:00:00,NA,33.08,17.06,51.33,30,6.904679999999999,NA,0,1034.4,10
F100,2013,12,8,1307,1315,-8,1506,US,802,N540UW,EWR,CLT,529,13,15,2013-12-08 13:00:00,NA,33.08,17.06,51.33,10,6.904679999999999,NA,0,1034,10
F101,2013,12,8,1453,1459,-6,1654,US,721,N174US,EWR,CLT,529,14,59,2013-12-08 14:00:00,NA,33.08,17.06,51.33,0,0,NA,0,1033.2,10
F102,2013,12,8,1504,1500,4,1701,EV,4155,N13202,EWR,CLT,529,15,0,2013-12-08 15:00:00,NA,33.08,17.96,53.36,30,4.60312,NA,0,1033.3,10
F103,2013,12,8,1727,1730,-3,1928,US,687,N669AW,EWR,CLT,529,17,30,2013-12-08 17:00:00,NA,30.2,26.96,92.86,30,9.20624,NA,0.02,NA,1
F104,2013,12,8,1827,1829,-2,2033,US,1751,N180US,EWR,CLT,529,18,29,2013-12-08 18:00:00,NA,28.94,26.96,92.86,20,9.20624,NA,0.02,NA,4
F105,2013,12,8,2047,1905,102,2106,EV,4100,N13958,EWR,CLT,529,19,5,2013-12-08 19:00:00,NA,28.94,26.6,92.86,30,11.5078,NA,0,NA,6
F106,2013,12,9,457,500,-3,651,US,1895,N562UW,EWR,CLT,529,5,0,2013-12-09 05:00:00,NA,33.98,33.8,100,40,14.960139999999999,NA,0.07,NA,3
F107,2013,12,9,607,610,-3,820,EV,4714,N14543,EWR,CLT,529,6,10,2013-12-09 06:00:00,NA,33.8,32,95.75,360,13.809359999999998,NA,0.05,NA,3
F108,2013,12,9,614,615,-1,818,US,1989,N170US,EWR,CLT,529,6,15,2013-12-09 06:00:00,NA,33.8,32,95.75,360,13.809359999999998,NA,0.05,NA,3
F109,2013,12,9,808,630,98,835,US,2052,N167US,EWR,CLT,529,6,30,2013-12-09 06:00:00,NA,33.8,32,95.75,360,13.809359999999998,NA,0.05,NA,3
F110,2013,12,9,820,820,0,1021,US,409,N653AW,EWR,CLT,529,8,20,2013-12-09 08:00:00,NA,33.8,32,95.75,20,11.5078,NA,0.03,NA,3
F111,2013,12,9,1023,1025,-2,1222,US,2083,N537UW,EWR,CLT,529,10,25,2013-12-09 10:00:00,NA,33.98,33.98,100,360,13.809359999999998,NA,0,NA,2
F112,2013,12,9,1153,942,131,1154,EV,5796,N17984,EWR,CLT,529,9,42,2013-12-09 09:00:00,NA,33.98,33.08,96.46,20,12.658579999999999,NA,0,1018.8,3
F113,2013,12,9,1312,1315,-3,1506,US,802,N176UW,EWR,CLT,529,13,15,2013-12-09 13:00:00,NA,37.4,35.6,93.14,300,9.20624,NA,0,NA,1
F114,2013,12,9,1524,1459,25,1700,EV,4396,N13955,EWR,CLT,529,14,59,2013-12-09 14:00:00,NA,37.4,37.04,100,280,11.5078,NA,0,NA,1
F115,2013,12,9,1740,1459,161,1654,US,721,N560UW,EWR,CLT,529,14,59,2013-12-09 14:00:00,NA,37.4,37.04,100,280,11.5078,NA,0,NA,1
F116,2013,12,9,1740,1700,40,1856,US,632,N658AW,EWR,CLT,529,17,0,2013-12-09 17:00:00,NA,37.94,35.96,92.49,250,8.05546,NA,0,1016,10
F117,2013,12,9,2051,1905,106,2106,EV,4397,N26549,EWR,CLT,529,19,5,2013-12-09 19:00:00,NA,37.4,35.6,93.14,250,10.357019999999999,NA,0,NA,9
F118,2013,12,9,2138,2111,27,2303,EV,4700,N14573,EWR,CLT,529,21,11,2013-12-09 21:00:00,NA,35.96,33.98,93.08,260,11.5078,NA,0,NA,9
F119,2013,12,10,457,500,-3,651,US,1895,N536UW,EWR,CLT,529,5,0,2013-12-10 05:00:00,NA,33.98,32,92.36,240,5.7539,NA,0,1014.3,10
F120,2013,12,10,608,610,-2,820,EV,4471,N12157,EWR,CLT,529,6,10,2013-12-10 06:00:00,NA,33.98,30.92,88.42,270,8.05546,NA,0,1015.8,8
F121,2013,12,10,613,615,-2,818,US,1989,N560UW,EWR,CLT,529,6,15,2013-12-10 06:00:00,NA,33.98,30.92,88.42,270,8.05546,NA,0,1015.8,8
F122,2013,12,10,820,630,110,835,US,2052,N170US,EWR,CLT,529,6,30,2013-12-10 06:00:00,NA,33.98,30.92,88.42,270,8.05546,NA,0,1015.8,8
F123,2013,12,10,828,820,8,1021,US,409,N663AW,EWR,CLT,529,8,20,2013-12-10 08:00:00,NA,33.08,32,95.75,200,4.60312,NA,0.12,1015.8,0.5
F124,2013,12,10,944,942,2,1154,EV,4186,N15574,EWR,CLT,529,9,42,2013-12-10 09:00:00,NA,33.08,32,95.75,230,6.904679999999999,NA,0.07,1015.2,0.5
F125,2013,12,10,1024,1025,-1,1222,US,2083,N182UW,EWR,CLT,529,10,25,2013-12-10 10:00:00,NA,33.8,33.8,100,NA,5.7539,NA,0.04,NA,1.5
F126,2013,12,11,459,500,-1,651,US,1895,N561UW,EWR,CLT,529,5,0,2013-12-11 05:00:00,NA,24.08,14,64.95,240,11.5078,NA,0,1025.3,10
F127,2013,12,11,611,610,1,820,EV,4199,N14568,EWR,CLT,529,6,10,2013-12-11 06:00:00,NA,23,14,67.96,220,8.05546,NA,0,1026.1,10
F128,2013,12,11,614,615,-1,818,US,1989,N554UW,EWR,CLT,529,6,15,2013-12-11 06:00:00,NA,23,14,67.96,220,8.05546,NA,0,1026.1,10
F129,2013,12,11,626,630,-4,835,US,2052,N560UW,EWR,CLT,529,6,30,2013-12-11 06:00:00,NA,23,14,67.96,220,8.05546,NA,0,1026.1,10
F130,2013,12,11,820,820,0,1021,US,409,N660AW,EWR,CLT,529,8,20,2013-12-11 08:00:00,NA,26.06,15.08,62.7,220,11.5078,NA,0,1027,10
F131,2013,12,11,941,942,-1,1154,EV,5796,N12924,EWR,CLT,529,9,42,2013-12-11 09:00:00,NA,28.94,15.08,55.69,250,14.960139999999999,23.0156,0,1027.3,10
F132,2013,12,11,1024,1025,-1,1222,US,2083,N196UW,EWR,CLT,529,10,25,2013-12-11 10:00:00,NA,30.02,15.98,55.42,260,12.658579999999999,23.0156,0,1027,10
F133,2013,12,11,1323,1315,8,1506,US,802,N165US,EWR,CLT,529,13,15,2013-12-11 13:00:00,NA,32,15.98,51.15,220,12.658579999999999,20.714039999999997,0,1023.7,10
F134,2013,12,11,1457,1459,-2,1654,US,721,N176UW,EWR,CLT,529,14,59,2013-12-11 14:00:00,NA,32,17.06,53.6,240,16.11092,NA,0,1024,10
F135,2013,12,11,1459,1500,-1,1701,EV,4113,N13132,EWR,CLT,529,15,0,2013-12-11 15:00:00,NA,30.92,17.06,55.99,220,11.5078,NA,0,1024,10
F136,2013,12,11,1726,1730,-4,1928,US,687,N648AW,EWR,CLT,529,17,30,2013-12-11 17:00:00,NA,30.02,17.96,60.38,220,11.5078,NA,0,1023.7,10
F137,2013,12,11,1825,1829,-4,2033,US,1751,N554UW,EWR,CLT,529,18,29,2013-12-11 18:00:00,NA,30.02,17.96,60.38,230,12.658579999999999,NA,0,1024,10
F138,2013,12,11,1905,1905,0,2106,EV,4511,N21537,EWR,CLT,529,19,5,2013-12-11 19:00:00,NA,28.94,17.06,60.69,240,12.658579999999999,NA,0,1023.9,10
F139,2013,12,11,2107,2111,-4,2303,EV,4700,N17560,EWR,CLT,529,21,11,2013-12-11 21:00:00,NA,30.02,15.98,55.42,250,11.5078,NA,0,1023.9,10
F140,2013,12,12,454,500,-6,651,US,1895,N188US,EWR,CLT,529,5,0,2013-12-12 05:00:00,NA,23,10.04,57.03,320,12.658579999999999,NA,0,1026.1,10
F141,2013,12,12,559,610,-11,820,EV,4714,N27962,EWR,CLT,529,6,10,2013-12-12 06:00:00,NA,23,6.08,47.7,300,14.960139999999999,23.0156,0,1026.8,10
F142,2013,12,12,609,615,-6,818,US,1989,N156UW,EWR,CLT,529,6,15,2013-12-12 06:00:00,NA,23,6.08,47.7,300,14.960139999999999,23.0156,0,1026.8,10
F143,2013,12,12,624,630,-6,835,US,2052,N171US,EWR,CLT,529,6,30,2013-12-12 06:00:00,NA,23,6.08,47.7,300,14.960139999999999,23.0156,0,1026.8,10
F144,2013,12,12,815,820,-5,1021,US,409,N656AW,EWR,CLT,529,8,20,2013-12-12 08:00:00,NA,23,5,45.41,310,12.658579999999999,18.41248,0,1027.9,10
F145,2013,12,12,938,942,-4,1154,EV,5796,N13997,EWR,CLT,529,9,42,2013-12-12 09:00:00,NA,24.08,6.08,45.59,320,18.41248,24.166379999999997,0,1028.4,10
F146,2013,12,12,1029,1025,4,1222,US,2083,N170US,EWR,CLT,529,10,25,2013-12-12 10:00:00,NA,24.98,6.08,43.91,310,14.960139999999999,24.166379999999997,0,1027.9,10
F147,2013,12,12,1313,1315,-2,1506,US,802,N190UW,EWR,CLT,529,13,15,2013-12-12 13:00:00,NA,26.96,6.98,42.14,270,8.05546,17.261699999999998,0,1025,10
F148,2013,12,12,1458,1459,-1,1654,US,721,N156UW,EWR,CLT,529,14,59,2013-12-12 14:00:00,NA,26.96,6.98,42.14,270,11.5078,19.56326,0,1024.9,10
F149,2013,12,12,1459,1500,-1,1700,EV,4396,N13118,EWR,CLT,529,15,0,2013-12-12 15:00:00,NA,26.06,6.98,43.74,230,8.05546,NA,0,1024.5,10
F150,2013,12,12,1724,1730,-6,1928,US,687,N675AW,EWR,CLT,529,17,30,2013-12-12 17:00:00,NA,24.08,6.98,47.49,230,10.357019999999999,NA,0,1024.8,10
F151,2013,12,12,1821,1829,-8,2033,US,1751,N538UW,EWR,CLT,529,18,29,2013-12-12 18:00:00,NA,24.08,6.98,47.49,240,11.5078,NA,0,1025.1,10
F152,2013,12,12,1917,1905,12,2106,EV,4397,N26545,EWR,CLT,529,19,5,2013-12-12 19:00:00,NA,23,6.98,49.69,240,14.960139999999999,21.864819999999998,0,1025,10
F153,2013,12,12,2138,2111,27,2303,EV,4700,N14977,EWR,CLT,529,21,11,2013-12-12 21:00:00,NA,21.92,6.98,52.01,230,10.357019999999999,NA,0,1023.4,10
F154,2013,12,13,455,500,-5,651,US,1895,N165US,EWR,CLT,529,5,0,2013-12-13 05:00:00,NA,21.92,8.06,54.61,240,10.357019999999999,NA,0,1021.7,10
F155,2013,12,13,602,610,-8,820,EV,4714,N13913,EWR,CLT,529,6,10,2013-12-13 06:00:00,NA,23,8.96,54.34,240,11.5078,NA,0,1022.1,10
F156,2013,12,13,608,615,-7,818,US,1989,N564UW,EWR,CLT,529,6,15,2013-12-13 06:00:00,NA,23,8.96,54.34,240,11.5078,NA,0,1022.1,10
F157,2013,12,13,621,630,-9,835,US,2052,N157UW,EWR,CLT,529,6,30,2013-12-13 06:00:00,NA,23,8.96,54.34,240,11.5078,NA,0,1022.1,10
F158,2013,12,13,814,820,-6,1021,US,409,N660AW,EWR,CLT,529,8,20,2013-12-13 08:00:00,NA,24.98,10.94,54.65,230,10.357019999999999,NA,0,1022.5,10
F159,2013,12,13,935,942,-7,1154,EV,5796,N14568,EWR,CLT,529,9,42,2013-12-13 09:00:00,NA,26.96,10.94,50.34,240,11.5078,NA,0,1022.9,10
F160,2013,12,13,1021,1025,-4,1222,US,2083,N190UW,EWR,CLT,529,10,25,2013-12-13 10:00:00,NA,28.94,10.94,46.41,260,17.261699999999998,27.618719999999996,0,1022.2,10
F161,2013,12,13,1315,1315,0,1506,US,802,N185UW,EWR,CLT,529,13,15,2013-12-13 13:00:00,NA,35.06,15.98,45.26,260,14.960139999999999,NA,0,1021,10
F162,2013,12,13,1452,1459,-7,1700,EV,4396,N11106,EWR,CLT,529,14,59,2013-12-13 14:00:00,NA,35.06,15.98,45.26,260,18.41248,25.317159999999998,0,1021.3,10
F163,2013,12,13,1453,1459,-6,1654,US,721,N179UW,EWR,CLT,529,14,59,2013-12-13 14:00:00,NA,35.06,15.98,45.26,260,18.41248,25.317159999999998,0,1021.3,10
F164,2013,12,13,1726,1730,-4,1928,US,687,N648AW,EWR,CLT,529,17,30,2013-12-13 17:00:00,NA,32,15.98,51.15,240,8.05546,NA,0,1023.6,10
F165,2013,12,13,1827,1829,-2,2033,US,1751,N564UW,EWR,CLT,529,18,29,2013-12-13 18:00:00,NA,30.92,17.06,55.99,230,5.7539,NA,0,1024.6,10
F166,2013,12,13,1904,1905,-1,2106,EV,4397,N14991,EWR,CLT,529,19,5,2013-12-13 19:00:00,NA,32,15.98,51.15,250,5.7539,NA,0,1025.4,10
F167,2013,12,13,2123,2111,12,2303,EV,4700,N13914,EWR,CLT,529,21,11,2013-12-13 21:00:00,NA,32,15.98,51.15,250,4.60312,NA,0,1026,10
F168,2013,12,14,623,630,-7,835,US,1951,N162UW,EWR,CLT,529,6,30,2013-12-14 06:00:00,NA,24.98,17.96,74.29,20,13.809359999999998,NA,0,1030.6,10
F169,2013,12,14,720,615,65,818,US,883,N565UW,EWR,CLT,529,6,15,2013-12-14 06:00:00,NA,24.98,17.96,74.29,20,13.809359999999998,NA,0,1030.6,10
F170,2013,12,14,822,820,2,1021,US,409,N652AW,EWR,CLT,529,8,20,2013-12-14 08:00:00,NA,26.06,21.92,85.96,40,11.5078,NA,0,NA,5
F171,2013,12,14,931,937,-6,1149,EV,4714,N15910,EWR,CLT,529,9,37,2013-12-14 09:00:00,NA,26.6,21.92,87.96,30,11.5078,NA,0.01,NA,1.5
F172,2013,12,14,1027,1025,2,1222,US,1842,N150UW,EWR,CLT,529,10,25,2013-12-14 10:00:00,NA,24.98,21.92,87.96,20,10.357019999999999,NA,0,1032.3,5
F173,2013,12,14,1221,1224,-3,1425,EV,3848,N15912,EWR,CLT,529,12,24,2013-12-14 12:00:00,NA,24.98,21.92,87.96,30,12.658579999999999,NA,0,1029.6,1.5
F174,2013,12,14,1311,1315,-4,1506,US,802,N127UW,EWR,CLT,529,13,15,2013-12-14 13:00:00,NA,26.06,23,88.01,50,12.658579999999999,18.41248,0.02,1028.5,1
F175,2013,12,14,1456,1459,-3,1654,US,1837,N182UW,EWR,CLT,529,14,59,2013-12-14 14:00:00,NA,24.98,23,92.05,50,13.809359999999998,21.864819999999998,0.03,NA,0.5
F176,2013,12,14,1709,1700,9,1856,US,632,N672AW,EWR,CLT,529,17,0,2013-12-14 17:00:00,NA,21.02,19.04,91.91,20,17.261699999999998,NA,0.02,1024.2,0.75
F177,2013,12,14,1819,1829,-10,2033,US,1873,N444US,EWR,CLT,529,18,29,2013-12-14 18:00:00,NA,19.94,19.04,96.23,20,17.261699999999998,NA,0.02,1022.8,0.5
F178,2013,12,15,608,615,-7,818,US,1989,N153UW,EWR,CLT,529,6,15,2013-12-15 06:00:00,NA,32,30.2,100,340,10.357019999999999,NA,0,NA,10
F179,2013,12,15,626,630,-4,835,US,1925,N540UW,EWR,CLT,529,6,30,2013-12-15 06:00:00,NA,32,30.2,100,340,10.357019999999999,NA,0,NA,10
F180,2013,12,15,818,820,-2,1021,US,409,N661AW,EWR,CLT,529,8,20,2013-12-15 08:00:00,NA,32,28.04,85.12,270,9.20624,NA,0,1002.1,10
F181,2013,12,15,1021,1025,-4,1222,US,2083,N197UW,EWR,CLT,529,10,25,2013-12-15 10:00:00,NA,33.98,30.02,86.39,270,13.809359999999998,NA,0,NA,10
F182,2013,12,15,1319,1315,4,1506,US,802,N566UW,EWR,CLT,529,13,15,2013-12-15 13:00:00,NA,39.02,30.92,74.98,270,16.11092,NA,0,NA,10
F183,2013,12,15,1422,1210,132,1411,EV,5796,N11535,EWR,CLT,529,12,10,2013-12-15 12:00:00,NA,37.94,30.92,75.58,270,13.809359999999998,NA,0,1002.6,10
F184,2013,12,15,1457,1459,-2,1700,EV,4155,N11106,EWR,CLT,529,14,59,2013-12-15 14:00:00,NA,37.94,30.02,72.87,260,12.658579999999999,NA,0,1004.8,10
F185,2013,12,15,1457,1459,-2,1654,US,721,N172US,EWR,CLT,529,14,59,2013-12-15 14:00:00,NA,37.94,30.02,72.87,260,12.658579999999999,NA,0,1004.8,10
F186,2013,12,15,1727,1730,-3,1928,US,687,N669AW,EWR,CLT,529,17,30,2013-12-15 17:00:00,NA,37.04,28.04,69.63,270,6.904679999999999,NA,0,1007.4,10
F187,2013,12,15,1822,1829,-7,2033,US,1751,N161UW,EWR,CLT,529,18,29,2013-12-15 18:00:00,NA,37.04,24.98,61.35,270,10.357019999999999,NA,0,1008.5,10
F188,2013,12,15,1859,1905,-6,2106,EV,4100,N13566,EWR,CLT,529,19,5,2013-12-15 19:00:00,NA,35.96,24.08,61.67,250,9.20624,20.714039999999997,0,1009.3,10
F189,2013,12,15,2140,2111,29,2303,EV,4700,N13949,EWR,CLT,529,21,11,2013-12-15 21:00:00,NA,32,19.94,60.66,240,11.5078,NA,0,1010.8,10
F190,2013,12,16,458,500,-2,651,US,1895,N558UW,EWR,CLT,529,5,0,2013-12-16 05:00:00,NA,26.96,12.02,52.81,270,19.56326,31.07106,0,1015.4,10
F191,2013,12,16,606,610,-4,820,EV,4714,N19554,EWR,CLT,529,6,10,2013-12-16 06:00:00,NA,26.06,10.94,52.25,260,16.11092,21.864819999999998,0,1016.5,10
F192,2013,12,16,610,615,-5,818,US,1989,N150UW,EWR,CLT,529,6,15,2013-12-16 06:00:00,NA,26.06,10.94,52.25,260,16.11092,21.864819999999998,0,1016.5,10
F193,2013,12,16,628,630,-2,835,US,2052,N169UW,EWR,CLT,529,6,30,2013-12-16 06:00:00,NA,26.06,10.94,52.25,260,16.11092,21.864819999999998,0,1016.5,10
F194,2013,12,16,813,820,-7,1021,US,409,N673AW,EWR,CLT,529,8,20,2013-12-16 08:00:00,NA,24.98,10.94,54.65,270,14.960139999999999,24.166379999999997,0,1018.5,10
F195,2013,12,16,941,942,-1,1154,EV,5796,N13994,EWR,CLT,529,9,42,2013-12-16 09:00:00,NA,24.08,10.94,56.74,290,14.960139999999999,21.864819999999998,0,1019,10
F196,2013,12,16,1023,1025,-2,1222,US,2083,N199UW,EWR,CLT,529,10,25,2013-12-16 10:00:00,NA,26.96,12.02,52.81,290,12.658579999999999,NA,0,1019,10
F197,2013,12,16,1312,1315,-3,1506,US,802,N543UW,EWR,CLT,529,13,15,2013-12-16 13:00:00,NA,30.02,10.94,44.41,300,13.809359999999998,NA,0,1018.5,10
F198,2013,12,16,1454,1459,-5,1654,US,721,N177US,EWR,CLT,529,14,59,2013-12-16 14:00:00,NA,30.02,10.04,42.66,280,13.809359999999998,20.714039999999997,0,1019.1,10
F199,2013,12,16,1552,1459,53,1700,EV,4396,N26549,EWR,CLT,529,14,59,2013-12-16 14:00:00,NA,30.02,10.04,42.66,280,13.809359999999998,20.714039999999997,0,1019.1,10
F200,2013,12,16,1656,1700,-4,1856,US,632,N663AW,EWR,CLT,529,17,0,2013-12-16 17:00:00,NA,28.04,8.06,42.32,260,8.05546,NA,0,1021.8,10
F201,2013,12,16,1957,1905,52,2106,EV,4397,N14977,EWR,CLT,529,19,5,2013-12-16 19:00:00,NA,24.98,8.96,50.02,270,6.904679999999999,NA,0,1023.3,10
F202,2013,12,16,2110,2111,-1,2303,EV,4700,N36915,EWR,CLT,529,21,11,2013-12-16 21:00:00,NA,24.08,8.96,51.93,290,6.904679999999999,NA,0,1023.6,10
F203,2013,12,17,459,500,-1,651,US,1895,N184US,EWR,CLT,529,5,0,2013-12-17 05:00:00,NA,26.6,15.98,68.2,NA,4.60312,NA,0,NA,5
F204,2013,12,17,609,610,-1,820,EV,4471,N21537,EWR,CLT,529,6,10,2013-12-17 06:00:00,NA,24.98,21.02,84.67,80,6.904679999999999,NA,0.01,1022.5,2
F205,2013,12,17,635,630,5,835,US,2052,N150UW,EWR,CLT,529,6,30,2013-12-17 06:00:00,NA,24.98,21.02,84.67,80,6.904679999999999,NA,0.01,1022.5,2
F206,2013,12,17,746,615,91,818,US,1989,N561UW,EWR,CLT,529,6,15,2013-12-17 06:00:00,NA,24.98,21.02,84.67,80,6.904679999999999,NA,0.01,1022.5,2
F207,2013,12,17,817,820,-3,1021,US,409,N647AW,EWR,CLT,529,8,20,2013-12-17 08:00:00,NA,26.96,21.92,81.03,70,10.357019999999999,NA,0,NA,5
F208,2013,12,17,944,942,2,1154,EV,4186,N11535,EWR,CLT,529,9,42,2013-12-17 09:00:00,NA,28.04,24.08,84.87,60,6.904679999999999,NA,0,1020.6,3
F209,2013,12,17,1029,1025,4,1222,US,2083,N155UW,EWR,CLT,529,10,25,2013-12-17 10:00:00,NA,28.94,24.98,86.18,60,9.20624,NA,0,NA,3
F210,2013,12,17,1309,1315,-6,1506,US,802,N171US,EWR,CLT,529,13,15,2013-12-17 13:00:00,NA,30.2,28.4,92.92,20,9.20624,NA,0.03,NA,1.5
F211,2013,12,17,1457,1459,-2,1654,US,721,N167US,EWR,CLT,529,14,59,2013-12-17 14:00:00,NA,30.2,28.4,92.92,360,11.5078,NA,0.01,NA,1.5
F212,2013,12,17,1838,1700,98,1856,US,632,N680AW,EWR,CLT,529,17,0,2013-12-17 17:00:00,NA,26.96,23,86.07,10,16.11092,NA,0,NA,10
F213,2013,12,17,2059,1905,114,2106,EV,4511,N12967,EWR,CLT,529,19,5,2013-12-17 19:00:00,NA,24.8,19.94,83.96,350,11.5078,NA,0,NA,10
F214,2013,12,17,2201,2111,50,2303,EV,4700,N14974,EWR,CLT,529,21,11,2013-12-17 21:00:00,NA,23,19.04,84.54,10,11.5078,NA,0,1015.3,10
F215,2013,12,18,500,500,0,651,US,1895,N178US,EWR,CLT,529,5,0,2013-12-18 05:00:00,NA,24.08,17.96,77.14,290,5.7539,NA,0,1015.6,10
F216,2013,12,18,609,610,-1,820,EV,4199,N12569,EWR,CLT,529,6,10,2013-12-18 06:00:00,NA,24.08,17.96,77.14,270,8.05546,NA,0,1016.4,10
F217,2013,12,18,619,615,4,818,US,1989,N152UW,EWR,CLT,529,6,15,2013-12-18 06:00:00,NA,24.08,17.96,77.14,270,8.05546,NA,0,1016.4,10
F218,2013,12,18,630,630,0,835,US,2052,N540UW,EWR,CLT,529,6,30,2013-12-18 06:00:00,NA,24.08,17.96,77.14,270,8.05546,NA,0,1016.4,10
F219,2013,12,18,820,820,0,1021,US,409,N673AW,EWR,CLT,529,8,20,2013-12-18 08:00:00,NA,24.98,19.04,77.82,250,5.7539,NA,0,1017.7,10
F220,2013,12,18,949,942,7,1154,EV,5796,N11544,EWR,CLT,529,9,42,2013-12-18 09:00:00,NA,28.04,21.02,74.61,270,5.7539,NA,0,1018,9
F221,2013,12,18,1021,1025,-4,1222,US,2083,N196UW,EWR,CLT,529,10,25,2013-12-18 10:00:00,NA,32,21.92,65.97,270,10.357019999999999,NA,0,1017.8,9
F222,2013,12,18,1316,1315,1,1506,US,802,N186US,EWR,CLT,529,13,15,2013-12-18 13:00:00,NA,37.04,21.02,51.95,280,13.809359999999998,24.166379999999997,0,1017.3,10
F223,2013,12,18,1454,1459,-5,1654,US,721,N162UW,EWR,CLT,529,14,59,2013-12-18 14:00:00,NA,37.04,19.94,49.62,290,14.960139999999999,NA,0,1017.9,10
F224,2013,12,18,1518,1500,18,1701,EV,4113,N14162,EWR,CLT,529,15,0,2013-12-18 15:00:00,NA,35.06,19.94,53.66,270,13.809359999999998,26.46794,0,1018.9,10
F225,2013,12,18,1725,1730,-5,1928,US,687,N665AW,EWR,CLT,529,17,30,2013-12-18 17:00:00,NA,33.98,19.94,56.02,240,8.05546,NA,0,1020.3,10
F226,2013,12,18,1822,1829,-7,2033,US,1751,N152UW,EWR,CLT,529,18,29,2013-12-18 18:00:00,NA,30.02,19.94,65.72,220,5.7539,NA,0,1020.8,10
F227,2013,12,18,2140,2111,29,2303,EV,4700,N13968,EWR,CLT,529,21,11,2013-12-18 21:00:00,NA,30.02,19.04,63.24,230,9.20624,NA,0,1021.8,10
F228,2013,12,19,450,500,-10,651,US,1895,N509AY,EWR,CLT,529,5,0,2013-12-19 05:00:00,NA,26.06,19.04,74.41,220,3.4523399999999995,NA,0,1021.5,9
F229,2013,12,19,613,615,-2,818,US,1963,N537UW,EWR,CLT,529,6,15,2013-12-19 06:00:00,NA,26.96,19.94,74.5,0,0,NA,0,1021.2,9
F230,2013,12,19,641,630,11,835,US,1899,N566UW,EWR,CLT,529,6,30,2013-12-19 06:00:00,NA,26.96,19.94,74.5,0,0,NA,0,1021.2,9
F231,2013,12,19,812,820,-8,1021,US,409,N647AW,EWR,CLT,529,8,20,2013-12-19 08:00:00,NA,28.94,21.92,74.7,230,3.4523399999999995,NA,0,1020.9,9
F232,2013,12,19,953,945,8,1202,EV,4714,N16561,EWR,CLT,529,9,45,2013-12-19 09:00:00,NA,33.08,24.08,69.17,210,5.7539,NA,0,1020.7,9
F233,2013,12,19,1026,1025,1,1222,US,1745,N554UW,EWR,CLT,529,10,25,2013-12-19 10:00:00,NA,35.06,24.98,66.36,220,9.20624,NA,0,1019.9,9
F234,2013,12,19,1219,1215,4,1416,EV,6030,N13914,EWR,CLT,529,12,15,2013-12-19 12:00:00,NA,39.02,24.98,56.77,210,11.5078,NA,0,1017.9,10
F235,2013,12,19,1311,1315,-4,1506,US,802,N150UW,EWR,CLT,529,13,15,2013-12-19 13:00:00,NA,42.08,24.98,50.42,230,10.357019999999999,NA,0,1017.2,10
F236,2013,12,19,1453,1459,-6,1654,US,721,N558UW,EWR,CLT,529,14,59,2013-12-19 14:00:00,NA,42.08,24.98,50.42,220,6.904679999999999,NA,0,1017.2,10
F237,2013,12,19,1457,1459,-2,1700,EV,4326,N15572,EWR,CLT,529,14,59,2013-12-19 14:00:00,NA,42.08,24.98,50.42,220,6.904679999999999,NA,0,1017.2,10
F238,2013,12,19,1727,1730,-3,1928,US,687,N664AW,EWR,CLT,529,17,30,2013-12-19 17:00:00,NA,39.92,28.94,64.54,220,5.7539,NA,0,1019.1,10
F239,2013,12,19,1827,1829,-2,2033,US,1751,N179UW,EWR,CLT,529,18,29,2013-12-19 18:00:00,NA,39.92,28.94,64.54,220,4.60312,NA,0,1019.6,10
F240,2013,12,19,1941,1938,3,2144,EV,5796,N16981,EWR,CLT,529,19,38,2013-12-19 19:00:00,NA,42.08,28.94,59.36,230,6.904679999999999,NA,0,1020.1,10
F241,2013,12,19,2148,2114,34,2311,EV,4700,N13161,EWR,CLT,529,21,14,2013-12-19 21:00:00,NA,39.92,28.94,64.54,210,3.4523399999999995,NA,0,1020.1,10
F242,2013,12,20,502,500,2,651,US,1895,N179UW,EWR,CLT,529,5,0,2013-12-20 05:00:00,NA,39.02,30.92,72.46,0,0,NA,0,1018.8,10
F243,2013,12,20,614,615,-1,818,US,1963,N161UW,EWR,CLT,529,6,15,2013-12-20 06:00:00,NA,33.08,28.94,84.56,260,3.4523399999999995,NA,0,1018.8,10
F244,2013,12,20,639,630,9,835,US,1899,N192UW,EWR,CLT,529,6,30,2013-12-20 06:00:00,NA,33.08,28.94,84.56,260,3.4523399999999995,NA,0,1018.8,10
F245,2013,12,20,820,820,0,1021,US,409,N677AW,EWR,CLT,529,8,20,2013-12-20 08:00:00,NA,39.92,32,73.08,150,3.4523399999999995,NA,0,1018.3,10
F246,2013,12,20,1022,1025,-3,1222,US,1745,N195UW,EWR,CLT,529,10,25,2013-12-20 10:00:00,NA,41,30.92,67.09,230,9.20624,NA,0,1017.7,10
F247,2013,12,20,1029,945,44,1202,EV,4714,N25134,EWR,CLT,529,9,45,2013-12-20 09:00:00,NA,41,32,70.08,0,0,NA,0,1018.2,10
F248,2013,12,20,1306,1215,51,1416,EV,6030,N12924,EWR,CLT,529,12,15,2013-12-20 12:00:00,NA,46.04,30.92,55.32,220,10.357019999999999,NA,0,1016,10
F249,2013,12,20,1312,1315,-3,1506,US,802,N557UW,EWR,CLT,529,13,15,2013-12-20 13:00:00,NA,48.92,30.92,49.64,230,10.357019999999999,NA,0,1015.6,10
F250,2013,12,20,1502,1459,3,1654,US,721,N163US,EWR,CLT,529,14,59,2013-12-20 14:00:00,NA,50,32,49.81,250,6.904679999999999,NA,0,1015.2,10
F251,2013,12,20,1619,1459,80,1700,EV,4326,N16919,EWR,CLT,529,14,59,2013-12-20 14:00:00,NA,50,32,49.81,250,6.904679999999999,NA,0,1015.2,10
F252,2013,12,20,1727,1730,-3,1928,US,687,N649AW,EWR,CLT,529,17,30,2013-12-20 17:00:00,NA,48.02,32,53.63,220,8.05546,NA,0,1016,10
F253,2013,12,20,1853,1829,24,2033,US,1751,N538UW,EWR,CLT,529,18,29,2013-12-20 18:00:00,NA,44.96,33.08,62.87,200,8.05546,NA,0,1015.8,10
F254,2013,12,20,2106,1938,88,2144,EV,5796,N11535,EWR,CLT,529,19,38,2013-12-20 19:00:00,NA,46.94,33.98,60.47,220,10.357019999999999,NA,0,1016.1,10
F255,2013,12,20,2158,2112,46,2312,US,1859,N182UW,EWR,CLT,529,21,12,2013-12-20 21:00:00,NA,44.96,35.06,68.05,220,8.05546,NA,0,1015.7,10
F256,2013,12,20,2233,2114,79,2311,EV,4700,N12996,EWR,CLT,529,21,14,2013-12-20 21:00:00,NA,44.96,35.06,68.05,220,8.05546,NA,0,1015.7,10
F257,2013,12,21,457,500,-3,651,US,1895,N562UW,EWR,CLT,529,5,0,2013-12-21 05:00:00,NA,44.96,42.08,89.56,260,3.4523399999999995,NA,0,1015.4,10
F258,2013,12,21,629,615,14,818,US,1963,N182UW,EWR,CLT,529,6,15,2013-12-21 06:00:00,NA,42.98,41,92.65,210,5.7539,NA,0,1015.2,10
F259,2013,12,21,633,630,3,835,US,1946,N187US,EWR,CLT,529,6,30,2013-12-21 06:00:00,NA,42.98,41,92.65,210,5.7539,NA,0,1015.2,10
F260,2013,12,21,819,820,-1,1021,US,409,N651AW,EWR,CLT,529,8,20,2013-12-21 08:00:00,NA,50,46.94,89.17,230,8.05546,NA,0,1015.7,10
F261,2013,12,21,955,1000,-5,1217,EV,4714,N13964,EWR,CLT,529,10,0,2013-12-21 10:00:00,NA,53.96,48.02,80.25,230,10.357019999999999,NA,0,1015.8,10
F262,2013,12,21,1048,1025,23,1222,US,887,N163US,EWR,CLT,529,10,25,2013-12-21 10:00:00,NA,53.96,48.02,80.25,230,10.357019999999999,NA,0,1015.8,10
F263,2013,12,21,1310,1315,-5,1506,US,802,N433US,EWR,CLT,529,13,15,2013-12-21 13:00:00,NA,62.06,48.92,62.04,230,8.05546,NA,0,1012.9,10
F264,2013,12,21,1454,1500,-6,1656,US,1834,N540UW,EWR,CLT,529,15,0,2013-12-21 15:00:00,NA,62.06,48.92,62.04,270,5.7539,NA,0,1013,10
F265,2013,12,21,1733,1719,14,1917,US,687,N652AW,EWR,CLT,529,17,19,2013-12-21 17:00:00,NA,59,48.92,69.17,150,3.4523399999999995,NA,0,1013.9,10
F266,2013,12,21,1821,1829,-8,2033,US,1751,N558UW,EWR,CLT,529,18,29,2013-12-21 18:00:00,NA,57.02,48.92,74.27,0,0,NA,0,1014.1,10
F267,2013,12,21,2056,1938,78,2144,EV,5796,N16911,EWR,CLT,529,19,38,2013-12-21 19:00:00,NA,57.92,51.08,77.92,190,8.05546,NA,0,1013.9,10
F268,2013,12,21,2114,2114,0,2311,EV,4700,N16541,EWR,CLT,529,21,14,2013-12-21 21:00:00,NA,60.08,53.06,77.59,200,11.5078,NA,0.01,1013.4,10
F269,2013,12,22,455,500,-5,651,US,1895,N409US,EWR,CLT,529,5,0,2013-12-22 05:00:00,NA,66.02,60.98,83.79,190,13.809359999999998,24.166379999999997,0.01,1009.6,10
F270,2013,12,22,613,615,-2,818,US,1963,N161UW,EWR,CLT,529,6,15,2013-12-22 06:00:00,NA,66.02,60.98,83.79,210,17.261699999999998,25.317159999999998,0,1010.6,10
F271,2013,12,22,631,630,1,835,US,1965,N185UW,EWR,CLT,529,6,30,2013-12-22 06:00:00,NA,66.02,60.98,83.79,210,17.261699999999998,25.317159999999998,0,1010.6,10
F272,2013,12,22,818,820,-2,1021,US,409,N678AW,EWR,CLT,529,8,20,2013-12-22 08:00:00,NA,69.98,62.06,75.96,220,19.56326,33.37262,0,1011.3,10
F273,2013,12,22,948,945,3,1202,EV,4714,N17560,EWR,CLT,529,9,45,2013-12-22 09:00:00,NA,71.6,62.6,73.27,230,23.0156,31.07106,0,NA,10
F274,2013,12,22,1016,1025,-9,1222,US,1745,N123UW,EWR,CLT,529,10,25,2013-12-22 10:00:00,NA,69.98,60.98,73.11,230,14.960139999999999,NA,0,1013.6,10
F275,2013,12,22,1239,1230,9,1431,EV,3848,N14977,EWR,CLT,529,12,30,2013-12-22 12:00:00,NA,69.98,57.92,65.54,210,12.658579999999999,NA,0,1012.2,10
F276,2013,12,22,1306,1315,-9,1506,US,802,N170US,EWR,CLT,529,13,15,2013-12-22 13:00:00,NA,69.08,57.92,67.59,180,11.5078,19.56326,0,1011.2,10
F277,2013,12,22,1541,1459,42,1700,EV,4326,N14562,EWR,CLT,529,14,59,2013-12-22 14:00:00,NA,68,59,72.92,190,10.357019999999999,NA,0,1011.2,10
F278,2013,12,22,1606,1459,67,1654,US,721,N539UW,EWR,CLT,529,14,59,2013-12-22 14:00:00,NA,68,59,72.92,190,10.357019999999999,NA,0,1011.2,10
F279,2013,12,22,1752,1730,22,1928,US,687,N680AW,EWR,CLT,529,17,30,2013-12-22 17:00:00,NA,64.94,55.94,72.62,250,14.960139999999999,24.166379999999997,0,1013.1,10
F280,2013,12,22,1936,1829,67,2033,US,1751,N566UW,EWR,CLT,529,18,29,2013-12-22 18:00:00,NA,64.94,55.94,72.62,250,9.20624,20.714039999999997,0,1012.8,10
F281,2013,12,22,2158,2114,44,2311,EV,4700,N14542,EWR,CLT,529,21,14,2013-12-22 21:00:00,NA,62.96,55.94,77.83,230,13.809359999999998,NA,0,1014.4,10
F282,2013,12,22,2222,1929,173,2135,EV,5796,N16919,EWR,CLT,529,19,29,2013-12-22 19:00:00,NA,64.04,55.94,74.94,220,13.809359999999998,NA,0,1013.9,10
F283,2013,12,23,454,500,-6,651,US,1895,N155UW,EWR,CLT,529,5,0,2013-12-23 05:00:00,NA,59,57.2,93.74,240,3.4523399999999995,NA,0.03,NA,5
F284,2013,12,23,616,615,1,818,US,1963,N567UW,EWR,CLT,529,6,15,2013-12-23 06:00:00,NA,60.08,59,96.22,170,3.4523399999999995,NA,0,1014.9,5
F285,2013,12,23,633,630,3,835,US,1899,N165US,EWR,CLT,529,6,30,2013-12-23 06:00:00,NA,60.08,59,96.22,170,3.4523399999999995,NA,0,1014.9,5
F286,2013,12,23,822,820,2,1021,US,409,N642AW,EWR,CLT,529,8,20,2013-12-23 08:00:00,NA,60.08,59,96.22,160,4.60312,NA,0.04,1014.7,4
F287,2013,12,23,1012,945,27,1202,EV,4714,N11547,EWR,CLT,529,9,45,2013-12-23 09:00:00,NA,60.8,60.8,100,NA,5.7539,NA,0.02,NA,3
F288,2013,12,23,1017,1025,-8,1222,US,1745,N171US,EWR,CLT,529,10,25,2013-12-23 10:00:00,NA,60.8,59,96.22,190,8.05546,NA,0.01,NA,3
F289,2013,12,23,1312,1315,-3,1506,US,802,N157UW,EWR,CLT,529,13,15,2013-12-23 13:00:00,NA,53.96,51.08,89.95,340,12.658579999999999,18.41248,0.07,1013.8,2.5
F290,2013,12,23,1348,1215,93,1416,EV,6030,N13550,EWR,CLT,529,12,15,2013-12-23 12:00:00,NA,59,57.2,96.81,330,14.960139999999999,NA,0.05,NA,2.5
F291,2013,12,23,1536,1500,36,1656,US,721,N155UW,EWR,CLT,529,15,0,2013-12-23 15:00:00,NA,53.96,51.08,89.95,320,4.60312,NA,0.03,1015.6,5
F292,2013,12,23,1622,1459,83,1700,EV,4326,N14902,EWR,CLT,529,14,59,2013-12-23 14:00:00,NA,53.6,51.8,93.6,40,8.05546,NA,0.06,NA,6
F293,2013,12,23,1746,1730,16,1928,US,687,N669AW,EWR,CLT,529,17,30,2013-12-23 17:00:00,NA,53.06,50,89.31,260,4.60312,NA,0,1017.4,10
F294,2013,12,23,1837,1829,8,2033,US,1751,N191UW,EWR,CLT,529,18,29,2013-12-23 18:00:00,NA,53.06,50,89.31,NA,5.7539,NA,0,1017.8,10
F295,2013,12,23,2241,2114,87,2311,EV,4700,N16918,EWR,CLT,529,21,14,2013-12-23 21:00:00,NA,44.6,35.6,70.48,340,20.714039999999997,27.618719999999996,0,NA,10
F296,2013,12,23,2336,1938,238,2144,EV,5796,N22909,EWR,CLT,529,19,38,2013-12-23 19:00:00,NA,48.92,44.06,83.23,320,23.0156,32.22184,0,1018.5,10
F297,2013,12,24,458,500,-2,651,US,1895,N184US,EWR,CLT,529,5,0,2013-12-24 05:00:00,NA,35.06,19.04,51.64,330,18.41248,NA,0,1021.3,10
F298,2013,12,24,608,615,-7,818,US,1963,N191UW,EWR,CLT,529,6,15,2013-12-24 06:00:00,NA,33.98,19.04,53.91,340,14.960139999999999,NA,0,1020.9,10
F299,2013,12,24,628,630,-2,835,US,1709,N155UW,EWR,CLT,529,6,30,2013-12-24 06:00:00,NA,33.98,19.04,53.91,340,14.960139999999999,NA,0,1020.9,10
F300,2013,12,24,818,820,-2,1021,US,409,N660AW,EWR,CLT,529,8,20,2013-12-24 08:00:00,NA,33.98,21.02,58.66,340,12.658579999999999,NA,0,1021.7,10
F301,2013,12,24,941,945,-4,1202,EV,4714,N33182,EWR,CLT,529,9,45,2013-12-24 09:00:00,NA,35.96,19.94,51.78,360,10.357019999999999,NA,0,1022.1,10
F302,2013,12,24,1024,1025,-1,1222,US,1745,N184US,EWR,CLT,529,10,25,2013-12-24 10:00:00,NA,39.02,19.94,45.91,340,11.5078,17.261699999999998,0,1021.1,10
F303,2013,12,24,1203,1205,-2,1406,EV,5796,N11176,EWR,CLT,529,12,5,2013-12-24 12:00:00,NA,42.08,19.04,39.23,300,13.809359999999998,NA,0,1019.2,10
F304,2013,12,24,1310,1315,-5,1506,US,802,N170US,EWR,CLT,529,13,15,2013-12-24 13:00:00,NA,41,19.04,40.9,320,8.05546,20.714039999999997,0,1019.3,10
F305,2013,12,24,1453,1500,-7,1656,US,721,N176UW,EWR,CLT,529,15,0,2013-12-24 15:00:00,NA,37.94,19.94,47.89,310,13.809359999999998,NA,0,1021,10
F306,2013,12,24,1714,1719,-5,1917,US,687,N653AW,EWR,CLT,529,17,19,2013-12-24 17:00:00,NA,35.06,24.98,66.36,290,5.7539,NA,0,1022.2,10
F307,2013,12,24,2034,1938,56,2144,EV,4113,N14907,EWR,CLT,529,19,38,2013-12-24 19:00:00,NA,33.08,21.02,60.81,300,16.11092,25.317159999999998,0,1024.4,10
F308,2013,12,25,456,500,-4,651,US,1895,N156UW,EWR,CLT,529,5,0,2013-12-25 05:00:00,NA,19.04,5,53.71,330,9.20624,NA,0,1032,10
F309,2013,12,25,615,615,0,818,US,1963,N169UW,EWR,CLT,529,6,15,2013-12-25 06:00:00,NA,19.04,5,53.71,320,16.11092,NA,0,1032.4,10
F310,2013,12,25,645,630,15,835,US,1899,N174US,EWR,CLT,529,6,30,2013-12-25 06:00:00,NA,19.04,5,53.71,320,16.11092,NA,0,1032.4,10
F311,2013,12,25,815,820,-5,1021,US,409,N664AW,EWR,CLT,529,8,20,2013-12-25 08:00:00,NA,21.02,5,49.37,300,10.357019999999999,NA,0,1034.3,10
F312,2013,12,25,948,945,3,1202,EV,4714,N19554,EWR,CLT,529,9,45,2013-12-25 09:00:00,NA,23,5,45.41,350,8.05546,NA,0,1033.9,10
F313,2013,12,25,1022,1025,-3,1222,US,1970,N709UW,EWR,CLT,529,10,25,2013-12-25 10:00:00,NA,24.98,3.92,39.78,NA,4.60312,NA,0,1033.8,10
F314,2013,12,25,1308,1315,-7,1506,US,802,N538UW,EWR,CLT,529,13,15,2013-12-25 13:00:00,NA,28.94,5,35.5,290,4.60312,NA,0,1032.6,10
F315,2013,12,25,1454,1500,-6,1656,US,721,N183UW,EWR,CLT,529,15,0,2013-12-25 15:00:00,NA,28.04,5,36.83,0,0,NA,0,1032.9,10
F316,2013,12,25,1738,1730,8,1928,US,687,N654AW,EWR,CLT,529,17,30,2013-12-25 17:00:00,NA,28.04,8.96,44.07,160,4.60312,NA,0,1033.1,10
F317,2013,12,25,1820,1829,-9,2033,US,1751,N152UW,EWR,CLT,529,18,29,2013-12-25 18:00:00,NA,28.04,8.06,42.32,170,5.7539,NA,0,1033,10
F318,2013,12,25,1932,1938,-6,2144,EV,5683,N11536,EWR,CLT,529,19,38,2013-12-25 19:00:00,NA,28.04,8.96,44.07,180,4.60312,NA,0,1032.9,10
F319,2013,12,25,2111,2114,-3,2311,EV,4700,N12569,EWR,CLT,529,21,14,2013-12-25 21:00:00,NA,28.94,15.08,55.69,170,5.7539,NA,0,1032.1,10
F320,2013,12,26,455,500,-5,651,US,1895,N194UW,EWR,CLT,529,5,0,2013-12-26 05:00:00,NA,30.02,17.96,60.38,0,0,NA,0,1026.5,10
F321,2013,12,26,611,615,-4,818,US,1963,N186US,EWR,CLT,529,6,15,2013-12-26 06:00:00,NA,30.92,19.94,63.36,0,0,NA,0,1026.4,10
F322,2013,12,26,635,630,5,835,US,1899,N189UW,EWR,CLT,529,6,30,2013-12-26 06:00:00,NA,30.92,19.94,63.36,0,0,NA,0,1026.4,10
F323,2013,12,26,819,825,-6,1026,US,409,N660AW,EWR,CLT,529,8,25,2013-12-26 08:00:00,NA,30.92,19.94,63.75,0,0,NA,0,NA,10
F324,2013,12,26,943,945,-2,1202,EV,4714,N11165,EWR,CLT,529,9,45,2013-12-26 09:00:00,NA,32,19.04,58.37,260,6.904679999999999,NA,0,1025.5,10
F325,2013,12,26,1025,1029,-4,1226,US,1745,N537UW,EWR,CLT,529,10,29,2013-12-26 10:00:00,NA,33.08,19.94,58.08,230,4.60312,NA,0,1024.7,10
F326,2013,12,26,1211,1215,-4,1416,EV,6030,N11539,EWR,CLT,529,12,15,2013-12-26 12:00:00,NA,33.98,23,69.04,260,16.11092,NA,0,NA,10
F327,2013,12,26,1437,1315,82,1506,US,802,N702UW,EWR,CLT,529,13,15,2013-12-26 13:00:00,NA,33.98,24.08,66.72,250,14.960139999999999,NA,0,1021.9,10
F328,2013,12,26,1453,1500,-7,1656,US,721,N152UW,EWR,CLT,529,15,0,2013-12-26 15:00:00,NA,35.96,24.98,64.03,270,11.5078,NA,0,1022.9,10
F329,2013,12,26,1501,1459,2,1700,EV,4326,N16976,EWR,CLT,529,14,59,2013-12-26 14:00:00,NA,35.96,24.98,64.03,240,14.960139999999999,NA,0,1022.2,10
F330,2013,12,26,1737,1730,7,1928,US,687,N604AW,EWR,CLT,529,17,30,2013-12-26 17:00:00,NA,33.98,24.08,66.72,270,10.357019999999999,NA,0,1023.8,10
F331,2013,12,26,1825,1829,-4,2033,US,1751,N169UW,EWR,CLT,529,18,29,2013-12-26 18:00:00,NA,33.98,24.08,66.72,280,10.357019999999999,NA,0,1024.7,10
F332,2013,12,26,1932,1938,-6,2144,EV,4700,N16919,EWR,CLT,529,19,38,2013-12-26 19:00:00,NA,33.08,23,66.11,280,8.05546,NA,0,1024.9,10
F333,2013,12,27,448,500,-12,651,US,1895,N543UW,EWR,CLT,529,5,0,2013-12-27 05:00:00,NA,28.94,17.96,63.1,270,5.7539,NA,0,1027.5,10
F334,2013,12,27,606,615,-9,818,US,1963,N157UW,EWR,CLT,529,6,15,2013-12-27 06:00:00,NA,30.02,17.96,60.38,250,8.05546,NA,0,1027.8,10
F335,2013,12,27,625,630,-5,835,US,1956,N118US,EWR,CLT,529,6,30,2013-12-27 06:00:00,NA,30.02,17.96,60.38,250,8.05546,NA,0,1027.8,10
F336,2013,12,27,812,820,-8,1021,US,409,N649AW,EWR,CLT,529,8,20,2013-12-27 08:00:00,NA,32,19.04,58.37,250,8.05546,NA,0,1028.6,10
F337,2013,12,27,950,945,5,1202,EV,4714,N24103,EWR,CLT,529,9,45,2013-12-27 09:00:00,NA,35.06,19.94,53.66,220,4.60312,NA,0,1028.3,10
F338,2013,12,27,1021,1025,-4,1222,US,1745,N559UW,EWR,CLT,529,10,25,2013-12-27 10:00:00,NA,35.96,19.04,49.83,220,6.904679999999999,NA,0,1027.7,10
F339,2013,12,27,1215,1215,0,1416,EV,6030,N14959,EWR,CLT,529,12,15,2013-12-27 12:00:00,NA,39.02,17.06,40.57,240,11.5078,NA,0,1025.9,10
F340,2013,12,27,1311,1315,-4,1506,US,802,N753US,EWR,CLT,529,13,15,2013-12-27 13:00:00,NA,42.08,17.96,37.46,260,12.658579999999999,19.56326,0,1025.3,10
F341,2013,12,27,1454,1500,-6,1656,US,721,N569UW,EWR,CLT,529,15,0,2013-12-27 15:00:00,NA,42.08,19.04,39.23,260,12.658579999999999,NA,0,1025.4,10
F342,2013,12,27,1655,1459,116,1700,EV,4326,N13978,EWR,CLT,529,14,59,2013-12-27 14:00:00,NA,42.08,17.96,37.46,260,11.5078,NA,0,1025.3,10
F343,2013,12,27,1735,1730,5,1928,US,687,N654AW,EWR,CLT,529,17,30,2013-12-27 17:00:00,NA,37.94,19.04,46.09,260,4.60312,NA,0,1026.1,10
F344,2013,12,27,1945,1938,7,2144,EV,5796,N16559,EWR,CLT,529,19,38,2013-12-27 19:00:00,NA,35.96,19.94,51.78,280,4.60312,NA,0,1027.2,10
F345,2013,12,27,1953,1829,84,2033,US,1751,N181UW,EWR,CLT,529,18,29,2013-12-27 18:00:00,NA,37.94,19.04,46.09,240,6.904679999999999,NA,0,1026.5,10
F346,2013,12,27,2111,2115,-4,2312,EV,4700,N11150,EWR,CLT,529,21,15,2013-12-27 21:00:00,NA,32,21.02,63.51,220,6.904679999999999,NA,0,1027.3,10
F347,2013,12,28,507,500,7,651,US,1895,N177US,EWR,CLT,529,5,0,2013-12-28 05:00:00,NA,28.94,21.02,71.91,220,6.904679999999999,NA,0,1023.5,10
F348,2013,12,28,606,615,-9,818,US,1963,N104UW,EWR,CLT,529,6,15,2013-12-28 06:00:00,NA,30.02,23,74.81,220,9.20624,NA,0,1023.7,10
F349,2013,12,28,622,630,-8,835,US,1946,N567UW,EWR,CLT,529,6,30,2013-12-28 06:00:00,NA,30.02,23,74.81,220,9.20624,NA,0,1023.7,10
F350,2013,12,28,816,820,-4,1021,US,409,N655AW,EWR,CLT,529,8,20,2013-12-28 08:00:00,NA,35.06,24.98,66.36,230,11.5078,NA,0,1023.3,10
F351,2013,12,28,1045,1025,20,1222,US,887,N176UW,EWR,CLT,529,10,25,2013-12-28 10:00:00,NA,44.06,24.98,46.73,240,9.20624,NA,0,1022.9,10
F352,2013,12,28,1209,1000,129,1217,EV,4714,N13132,EWR,CLT,529,10,0,2013-12-28 10:00:00,NA,44.06,24.98,46.73,240,9.20624,NA,0,1022.9,10
F353,2013,12,28,1310,1315,-5,1506,US,802,N452UW,EWR,CLT,529,13,15,2013-12-28 13:00:00,NA,55.94,24.08,28.93,230,20.714039999999997,26.46794,0,1018.8,10
F354,2013,12,28,1452,1500,-8,1656,US,1834,N181UW,EWR,CLT,529,15,0,2013-12-28 15:00:00,NA,55.04,24.98,31.03,240,14.960139999999999,26.46794,0,1018.5,10
F355,2013,12,28,1739,1730,9,1928,US,687,N604AW,EWR,CLT,529,17,30,2013-12-28 17:00:00,NA,50,26.96,40.55,220,11.5078,NA,0,1019.6,10
F356,2013,12,28,1820,1829,-9,2033,US,1751,N152UW,EWR,CLT,529,18,29,2013-12-28 18:00:00,NA,48.02,26.96,43.67,220,11.5078,NA,0,1020.1,10
F357,2013,12,28,1931,1930,1,2136,EV,4622,N14568,EWR,CLT,529,19,30,2013-12-28 19:00:00,NA,46.94,26.96,45.48,220,10.357019999999999,NA,0,1019.9,10
F358,2013,12,28,2112,2114,-2,2311,EV,4700,N14916,EWR,CLT,529,21,14,2013-12-28 21:00:00,NA,44.96,26.96,49.02,230,11.5078,NA,0,1019.5,10
F359,2013,12,29,517,500,17,651,US,1895,N460UW,EWR,CLT,529,5,0,2013-12-29 05:00:00,NA,42.08,28.94,59.36,160,4.60312,NA,0,1016,10
F360,2013,12,29,607,615,-8,818,US,1963,N555AY,EWR,CLT,529,6,15,2013-12-29 06:00:00,NA,42.08,28.94,59.36,190,5.7539,NA,0,1016.5,10
F361,2013,12,29,624,630,-6,835,US,1965,N195UW,EWR,CLT,529,6,30,2013-12-29 06:00:00,NA,42.08,28.94,59.36,190,5.7539,NA,0,1016.5,10
F362,2013,12,29,813,820,-7,1021,US,409,N651AW,EWR,CLT,529,8,20,2013-12-29 08:00:00,NA,44.06,28.94,55.02,230,4.60312,NA,0,1016.6,10
F363,2013,12,29,940,945,-5,1202,EV,4714,N16178,EWR,CLT,529,9,45,2013-12-29 09:00:00,NA,44.96,30.02,55.56,180,5.7539,NA,0,1016.2,10
F364,2013,12,29,1049,1025,24,1222,US,1745,N105UW,EWR,CLT,529,10,25,2013-12-29 10:00:00,NA,44.96,33.98,65.18,0,0,NA,0.01,1013.4,10
F365,2013,12,29,1236,1230,6,1431,EV,3848,N15983,EWR,CLT,529,12,30,2013-12-29 12:00:00,NA,42.8,39.02,88.81,NA,8.05546,NA,0.11,NA,4
F366,2013,12,29,1313,1315,-2,1506,US,802,N539UW,EWR,CLT,529,13,15,2013-12-29 13:00:00,NA,42.8,41,95.92,60,8.05546,NA,0.23,NA,3
F367,2013,12,29,1455,1500,-5,1656,US,721,N174US,EWR,CLT,529,15,0,2013-12-29 15:00:00,NA,42.08,41,95.92,10,10.357019999999999,NA,0.38,1000,1.25
F368,2013,12,29,1549,1459,50,1700,EV,4326,N12900,EWR,CLT,529,14,59,2013-12-29 14:00:00,NA,42.98,42.08,96.6,50,8.05546,NA,0.25,1001.8,1.5
F369,2013,12,29,1801,1730,31,1928,US,687,N649AW,EWR,CLT,529,17,30,2013-12-29 17:00:00,NA,42.8,42.8,100,350,14.960139999999999,NA,0.01,NA,9
F370,2013,12,29,1849,1829,20,2033,US,1751,N197UW,EWR,CLT,529,18,29,2013-12-29 18:00:00,NA,42.98,41,92.65,330,16.11092,24.166379999999997,0,997.9,6
F371,2013,12,29,2204,1938,146,2144,EV,5796,N18556,EWR,CLT,529,19,38,2013-12-29 19:00:00,NA,42.8,39.92,91.98,320,14.960139999999999,NA,0,NA,10
F372,2013,12,29,2207,2114,53,2311,EV,4700,N12957,EWR,CLT,529,21,14,2013-12-29 21:00:00,NA,42.98,37.94,82.24,270,9.20624,NA,0,1003,10
F373,2013,12,30,454,500,-6,651,US,1895,N559UW,EWR,CLT,529,5,0,2013-12-30 05:00:00,NA,37.04,35.06,92.46,220,8.05546,NA,0,1010.1,10
F374,2013,12,30,637,630,7,835,US,1956,N121UW,EWR,CLT,529,6,30,2013-12-30 06:00:00,NA,39.02,35.96,88.66,230,8.05546,NA,0,1011.3,10
F375,2013,12,30,701,615,46,818,US,1963,N184US,EWR,CLT,529,6,15,2013-12-30 06:00:00,NA,39.02,35.96,88.66,230,8.05546,NA,0,1011.3,10
F376,2013,12,30,814,820,-6,1021,US,409,N667AW,EWR,CLT,529,8,20,2013-12-30 08:00:00,NA,42.08,37.04,82.17,240,10.357019999999999,NA,0,1013.2,10
F377,2013,12,30,1000,945,15,1202,EV,4714,N41104,EWR,CLT,529,9,45,2013-12-30 09:00:00,NA,44.96,37.04,73.59,260,10.357019999999999,NA,0,1014,10
F378,2013,12,30,1022,1025,-3,1222,US,1745,N174US,EWR,CLT,529,10,25,2013-12-30 10:00:00,NA,42.98,32,64.93,320,13.809359999999998,20.714039999999997,0,1015,10
F379,2013,12,30,1312,1315,-3,1506,US,802,N191UW,EWR,CLT,529,13,15,2013-12-30 13:00:00,NA,37.94,23,54.51,330,19.56326,25.317159999999998,0,1016.7,10
F380,2013,12,30,1354,1215,99,1416,EV,6030,N14902,EWR,CLT,529,12,15,2013-12-30 12:00:00,NA,39.92,26.06,57.33,320,13.809359999999998,NA,0,1015.9,10
F381,2013,12,30,1456,1500,-4,1656,US,721,N197UW,EWR,CLT,529,15,0,2013-12-30 15:00:00,NA,35.06,17.96,49.3,340,17.261699999999998,25.317159999999998,0,1019.1,10
F382,2013,12,30,1522,1459,23,1700,EV,4326,N14905,EWR,CLT,529,14,59,2013-12-30 14:00:00,NA,37.04,21.02,51.95,320,17.261699999999998,24.166379999999997,0,1017.6,10
F383,2013,12,30,1725,1730,-5,1928,US,687,N604AW,EWR,CLT,529,17,30,2013-12-30 17:00:00,NA,30.92,12.92,46.74,340,16.11092,NA,0,1020.5,10
F384,2013,12,30,1822,1829,-7,2033,US,1751,N161UW,EWR,CLT,529,18,29,2013-12-30 18:00:00,NA,28.94,12.02,48.69,330,14.960139999999999,23.0156,0,1021.1,10
F385,2013,12,30,1951,1938,13,2144,EV,5796,N14558,EWR,CLT,529,19,38,2013-12-30 19:00:00,NA,NA,NA,NA,NA,NA,NA,NA,NA,NA
F386,2013,12,30,2131,2114,17,2311,EV,4700,N13538,EWR,CLT,529,21,14,2013-12-30 21:00:00,NA,NA,NA,NA,NA,NA,NA,NA,NA,NA
F387,2013,12,31,459,500,-1,651,US,1895,N557UW,EWR,CLT,529,5,0,2013-12-31 05:00:00,NA,NA,NA,NA,NA,NA,NA,NA,NA,NA
F388,2013,12,31,608,615,-7,818,US,1963,N192UW,EWR,CLT,529,6,15,2013-12-31 06:00:00,NA,NA,NA,NA,NA,NA,NA,NA,NA,NA
F389,2013,12,31,630,630,0,835,US,1956,N114UW,EWR,CLT,529,6,30,2013-12-31 06:00:00,NA,NA,NA,NA,NA,NA,NA,NA,NA,NA
F390,2013,12,31,815,820,-5,1021,US,409,N655AW,EWR,CLT,529,8,20,2013-12-31 08:00:00,NA,NA,NA,NA,NA,NA,NA,NA,NA,NA
F391,2013,12,31,1021,1025,-4,1222,US,1745,N153UW,EWR,CLT,529,10,25,2013-12-31 10:00:00,NA,NA,NA,NA,NA,NA,NA,NA,NA,NA
F392,2013,12,31,1043,945,58,1202,EV,4700,N41104,EWR,CLT,529,9,45,2013-12-31 09:00:00,NA,NA,NA,NA,NA,NA,NA,NA,NA,NA
F393,2013,12,31,1217,1215,2,1416,EV,5796,N11189,EWR,CLT,529,12,15,2013-12-31 12:00:00,NA,NA,NA,NA,NA,NA,NA,NA,NA,NA
F394,2013,12,31,1311,1315,-4,1506,US,802,N199UW,EWR,CLT,529,13,15,2013-12-31 13:00:00,NA,NA,NA,NA,NA,NA,NA,NA,NA,NA
F395,2013,12,31,1519,1500,19,1701,EV,4326,N13958,EWR,CLT,529,15,0,2013-12-31 15:00:00,NA,NA,NA,NA,NA,NA,NA,NA,NA,NA
F396,2013,12,31,1536,1500,36,1656,US,721,N562UW,EWR,CLT,529,15,0,2013-12-31 15:00:00,NA,NA,NA,NA,NA,NA,NA,NA,NA,NA
F397,2013,12,31,1722,1730,-8,1928,US,687,N651AW,EWR,CLT,529,17,30,2013-12-31 17:00:00,NA,NA,NA,NA,NA,NA,NA,NA,NA,NA
F398,2013,12,31,1819,1829,-10,2033,US,1751,N167US,EWR,CLT,529,18,29,2013-12-31 18:00:00,NA,NA,NA,NA,NA,NA,NA,NA,NA,NA
F399,2013,12,31,1948,1938,10,2144,EV,4714,N14902,EWR,CLT,529,19,38,2013-12-31 19:00:00,NA,NA,NA,NA,NA,NA,NA,NA,NA,NA
